COSMOS 2084             
1 20663U 90055A   26122.37941550  .00001975  00000+0  14884-3 0  9992
2 20663  62.7883 152.4158 0008739 215.2376 144.8147 15.05931136944406
SL-6 R/B(2)             
1 20666U 90055D   26122.10403147  .00002489  00000+0  19256-3 0  9990
2 20666  62.7833  72.1695 0033381 357.9884   2.1075 15.03831351946221
SL-8 R/B                
1 20775U 90078B   26122.30630368  .00026773  00000+0  77691-3 0  9994
2 20775  82.9057 203.0400 0355670 192.8872 166.3084 14.90697695817286
SL-8 R/B                
1 21088U 91006B   26122.38628534  .00000145  00000+0  13034-3 0  9990
2 21088  82.9395 130.1099 0021077 243.0988 232.7972 13.77506293771461
OKEAN-3                 
1 21397U 91039A   26122.40201356  .00003762  00000+0  26194-3 0  9990
2 21397  82.5145 284.7764 0014851 144.0739 216.1489 15.05102975873110
COSMOS 2151             
1 21422U 91042A   26122.37575612  .00001704  00000+0  13370-3 0  9994
2 21422  82.4989  31.8834 0010847 234.1821 125.8396 15.00316816871248
SL-14 R/B               
1 21423U 91042B   26122.43984701  .00000339  00000+0  39805-4 0  9990
2 21423  82.4937 169.7960 0018435  66.9069 293.4086 14.81874324861034
ERS-1                   
1 21574U 91050A   26122.28948391  .00000356  00000+0  12833-3 0  9994
2 21574  98.7828 141.8612 0032722  44.9616 315.4212 14.39488342823447
ARIANE 40 R/B           
1 21610U 91050F   26122.42109852  .00000298  00000+0  10156-3 0  9993
2 21610  98.1912 172.6124 0001763 268.1250  91.9739 14.42929547826748
INTERCOSMOS 25          
1 21819U 91086A   26122.38990065  .00001045  00000+0  20280-3 0  9992
2 21819  82.6000 277.5251 1485580   1.1898 359.2123 12.12140410503195
SL-8 R/B                
1 21876U 92008B   26122.38768257  .00000079  00000+0  65887-4 0  9995
2 21876  82.9286 227.8352 0034137 346.9296  77.7825 13.75971452716809
SL-8 R/B                
1 21938U 92020B   26122.46750685 -.00000028  00000+0 -44975-4 0  9994
2 21938  82.9270 113.8180 0029807 145.3235  19.7643 13.75547899708524
USA 81                  
1 21949U 92023A   26122.37906977  .00000179  00000+0  59000-4 0  9996
2 21949  85.0042 100.4458 0001544 110.0239 250.1119 14.32384744102471
