[
    {
        "OBJECT_NAME": "COSMOS 2084",
        "OBJECT_ID": "1990-055A",
        "EPOCH": "2026-05-02T09:06:21.499200",
        "MEAN_MOTION": 15.05931136,
        "ECCENTRICITY": 0.0008739,
        "INCLINATION": 62.7883,
        "RA_OF_ASC_NODE": 152.4158,
        "ARG_OF_PERICENTER": 215.2376,
        "MEAN_ANOMALY": 144.8147,
        "EPHEMERIS_TYPE": 0,
        "CLASSIFICATION_TYPE": "U",
        "NORAD_CAT_ID": 20663,
        "ELEMENT_SET_NO": 999,
        "REV_AT_EPOCH": 94440,
        "BSTAR": 0.00014884,
        "MEAN_MOTION_DOT": 1.975e-05,
        "MEAN_MOTION_DDOT": 0
    },
    {
        "OBJECT_NAME": "SL-6 R/B(2)",
        "OBJECT_ID": "1990-055D",
        "EPOCH": "2026-05-02T02:29:48.319008",
        "MEAN_MOTION": 15.03831351,
        "ECCENTRICITY": 0.0033381,
        "INCLINATION": 62.7833,
        "RA_OF_ASC_NODE": 72.1695,
        "ARG_OF_PERICENTER": 357.9884,
        "MEAN_ANOMALY": 2.1075,
        "EPHEMERIS_TYPE": 0,
        "CLASSIFICATION_TYPE": "U",
        "NORAD_CAT_ID": 20666,
        "ELEMENT_SET_NO": 999,
        "REV_AT_EPOCH": 94622,
        "BSTAR": 0.00019256,
        "MEAN_MOTION_DOT": 2.489e-05,
        "MEAN_MOTION_DDOT": 0
    },
    {
        "OBJECT_NAME": "SL-8 R/B",
        "OBJECT_ID": "1990-078B",
        "EPOCH": "2026-05-02T07:21:04.637952",
        "MEAN_MOTION": 14.90697695,
        "ECCENTRICITY": 0.035567,
        "INCLINATION": 82.9057,
        "RA_OF_ASC_NODE": 203.04,
        "ARG_OF_PERICENTER": 192.8872,
        "MEAN_ANOMALY": 166.3084,
        "EPHEMERIS_TYPE": 0,
        "CLASSIFICATION_TYPE": "U",
        "NORAD_CAT_ID": 20775,
        "ELEMENT_SET_NO": 999,
        "REV_AT_EPOCH": 81728,
        "BSTAR": 0.00077691,
        "MEAN_MOTION_DOT": 0.00026773,
        "MEAN_MOTION_DDOT": 0
    },
    {
        "OBJECT_NAME": "SL-8 R/B",
        "OBJECT_ID": "1991-006B",
        "EPOCH": "2026-05-02T09:16:15.053376",
        "MEAN_MOTION": 13.77506293,
        "ECCENTRICITY": 0.0021077,
        "INCLINATION": 82.9395,
        "RA_OF_ASC_NODE": 130.1099,
        "ARG_OF_PERICENTER": 243.0988,
        "MEAN_ANOMALY": 232.7972,
        "EPHEMERIS_TYPE": 0,
        "CLASSIFICATION_TYPE": "U",
        "NORAD_CAT_ID": 21088,
        "ELEMENT_SET_NO": 999,
        "REV_AT_EPOCH": 77146,
        "BSTAR": 0.00013034,
        "MEAN_MOTION_DOT": 1.45e-06,
        "MEAN_MOTION_DDOT": 0
    },
    {
        "OBJECT_NAME": "OKEAN-3",
        "OBJECT_ID": "1991-039A",
        "EPOCH": "2026-05-02T09:38:53.971584",
        "MEAN_MOTION": 15.05102975,
        "ECCENTRICITY": 0.0014851,
        "INCLINATION": 82.5145,
        "RA_OF_ASC_NODE": 284.7764,
        "ARG_OF_PERICENTER": 144.0739,
        "MEAN_ANOMALY": 216.1489,
        "EPHEMERIS_TYPE": 0,
        "CLASSIFICATION_TYPE": "U",
        "NORAD_CAT_ID": 21397,
        "ELEMENT_SET_NO": 999,
        "REV_AT_EPOCH": 87311,
        "BSTAR": 0.00026194,
        "MEAN_MOTION_DOT": 3.762e-05,
        "MEAN_MOTION_DDOT": 0
    },
    {
        "OBJECT_NAME": "COSMOS 2151",
        "OBJECT_ID": "1991-042A",
        "EPOCH": "2026-05-02T09:01:05.328768",
        "MEAN_MOTION": 15.00316816,
        "ECCENTRICITY": 0.0010847,
        "INCLINATION": 82.4989,
        "RA_OF_ASC_NODE": 31.8834,
        "ARG_OF_PERICENTER": 234.1821,
        "MEAN_ANOMALY": 125.8396,
        "EPHEMERIS_TYPE": 0,
        "CLASSIFICATION_TYPE": "U",
        "NORAD_CAT_ID": 21422,
        "ELEMENT_SET_NO": 999,
        "REV_AT_EPOCH": 87124,
        "BSTAR": 0.0001337,
        "MEAN_MOTION_DOT": 1.704e-05,
        "MEAN_MOTION_DDOT": 0
    },
    {
        "OBJECT_NAME": "SL-14 R/B",
        "OBJECT_ID": "1991-042B",
        "EPOCH": "2026-05-02T10:33:22.781664",
        "MEAN_MOTION": 14.81874324,
        "ECCENTRICITY": 0.0018435,
        "INCLINATION": 82.4937,
        "RA_OF_ASC_NODE": 169.796,
        "ARG_OF_PERICENTER": 66.9069,
        "MEAN_ANOMALY": 293.4086,
        "EPHEMERIS_TYPE": 0,
        "CLASSIFICATION_TYPE": "U",
        "NORAD_CAT_ID": 21423,
        "ELEMENT_SET_NO": 999,
        "REV_AT_EPOCH": 86103,
        "BSTAR": 3.9805e-05,
        "MEAN_MOTION_DOT": 3.39e-06,
        "MEAN_MOTION_DDOT": 0
    },
    {
        "OBJECT_NAME": "ERS-1",
        "OBJECT_ID": "1991-050A",
        "EPOCH": "2026-05-02T06:56:51.409824",
        "MEAN_MOTION": 14.39488342,
        "ECCENTRICITY": 0.0032722,
        "INCLINATION": 98.7828,
        "RA_OF_ASC_NODE": 141.8612,
        "ARG_OF_PERICENTER": 44.9616,
        "MEAN_ANOMALY": 315.4212,
        "EPHEMERIS_TYPE": 0,
        "CLASSIFICATION_TYPE": "U",
        "NORAD_CAT_ID": 21574,
        "ELEMENT_SET_NO": 999,
        "REV_AT_EPOCH": 82344,
        "BSTAR": 0.00012833,
        "MEAN_MOTION_DOT": 3.56e-06,
        "MEAN_MOTION_DDOT": 0
    },
    {
        "OBJECT_NAME": "ARIANE 40 R/B",
        "OBJECT_ID": "1991-050F",
        "EPOCH": "2026-05-02T10:06:22.912128",
        "MEAN_MOTION": 14.42929547,
        "ECCENTRICITY": 0.0001763,
        "INCLINATION": 98.1912,
        "RA_OF_ASC_NODE": 172.6124,
        "ARG_OF_PERICENTER": 268.125,
        "MEAN_ANOMALY": 91.9739,
        "EPHEMERIS_TYPE": 0,
        "CLASSIFICATION_TYPE": "U",
        "NORAD_CAT_ID": 21610,
        "ELEMENT_SET_NO": 999,
        "REV_AT_EPOCH": 82674,
        "BSTAR": 0.00010156,
        "MEAN_MOTION_DOT": 2.98e-06,
        "MEAN_MOTION_DDOT": 0
    },
    {
        "OBJECT_NAME": "INTERCOSMOS 25",
        "OBJECT_ID": "1991-086A",
        "EPOCH": "2026-05-02T09:21:27.416160",
        "MEAN_MOTION": 12.1214041,
        "ECCENTRICITY": 0.148558,
        "INCLINATION": 82.6,
        "RA_OF_ASC_NODE": 277.5251,
        "ARG_OF_PERICENTER": 1.1898,
        "MEAN_ANOMALY": 359.2123,
        "EPHEMERIS_TYPE": 0,
        "CLASSIFICATION_TYPE": "U",
        "NORAD_CAT_ID": 21819,
        "ELEMENT_SET_NO": 999,
        "REV_AT_EPOCH": 50319,
        "BSTAR": 0.0002028,
        "MEAN_MOTION_DOT": 1.045e-05,
        "MEAN_MOTION_DDOT": 0
    },
    {
        "OBJECT_NAME": "SL-8 R/B",
        "OBJECT_ID": "1992-008B",
        "EPOCH": "2026-05-02T09:18:15.774048",
        "MEAN_MOTION": 13.75971452,
        "ECCENTRICITY": 0.0034137,
        "INCLINATION": 82.9286,
        "RA_OF_ASC_NODE": 227.8352,
        "ARG_OF_PERICENTER": 346.9296,
        "MEAN_ANOMALY": 77.7825,
        "EPHEMERIS_TYPE": 0,
        "CLASSIFICATION_TYPE": "U",
        "NORAD_CAT_ID": 21876,
        "ELEMENT_SET_NO": 999,
        "REV_AT_EPOCH": 71680,
        "BSTAR": 6.5887e-05,
        "MEAN_MOTION_DOT": 7.9e-07,
        "MEAN_MOTION_DDOT": 0
    },
    {
        "OBJECT_NAME": "SL-8 R/B",
        "OBJECT_ID": "1992-020B",
        "EPOCH": "2026-05-02T11:13:12.591840",
        "MEAN_MOTION": 13.75547899,
        "ECCENTRICITY": 0.0029807,
        "INCLINATION": 82.927,
        "RA_OF_ASC_NODE": 113.818,
        "ARG_OF_PERICENTER": 145.3235,
        "MEAN_ANOMALY": 19.7643,
        "EPHEMERIS_TYPE": 0,
        "CLASSIFICATION_TYPE": "U",
        "NORAD_CAT_ID": 21938,
        "ELEMENT_SET_NO": 999,
        "REV_AT_EPOCH": 70852,
        "BSTAR": -4.4975e-05,
        "MEAN_MOTION_DOT": -2.8e-07,
        "MEAN_MOTION_DDOT": 0
    },
    {
        "OBJECT_NAME": "USA 81",
        "OBJECT_ID": "1992-023A",
        "EPOCH": "2026-05-02T09:05:51.628128",
        "MEAN_MOTION": 14.32384744,
        "ECCENTRICITY": 0.0001544,
        "INCLINATION": 85.0042,
        "RA_OF_ASC_NODE": 100.4458,
        "ARG_OF_PERICENTER": 110.0239,
        "MEAN_ANOMALY": 250.1119,
        "EPHEMERIS_TYPE": 0,
        "CLASSIFICATION_TYPE": "U",
        "NORAD_CAT_ID": 21949,
        "ELEMENT_SET_NO": 999,
        "REV_AT_EPOCH": 10247,
        "BSTAR": 5.9e-05,
        "MEAN_MOTION_DOT": 1.79e-06,
        "MEAN_MOTION_DDOT": 0
    }
]